{
  "type": "FeatureCollection",
  "features": [
    {
      "type": "Feature",
      "properties": {
        "layer": "seed-tile",
        "title": "tile 38.6100_-120.1617_38.7185_-120.0225",
        "stroke": "#2e7d32",
        "stroke-width": 1,
        "stroke-opacity": 0.6,
        "fill": "#2e7d32",
        "fill-opacity": 0.06
      },
      "geometry": {
        "type": "Polygon",
        "coordinates": [
          [
            [
              -120.16165466008705,
              38.61
            ],
            [
              -120.02248199013057,
              38.61
            ],
            [
              -120.02248199013057,
              38.718524607954855
            ],
            [
              -120.16165466008705,
              38.718524607954855
            ],
            [
              -120.16165466008705,
              38.61
            ]
          ]
        ]
      }
    },
    {
      "type": "Feature",
      "properties": {
        "layer": "seed-tile",
        "title": "tile 38.7185_-120.1617_38.8270_-120.0225",
        "stroke": "#2e7d32",
        "stroke-width": 1,
        "stroke-opacity": 0.6,
        "fill": "#2e7d32",
        "fill-opacity": 0.06
      },
      "geometry": {
        "type": "Polygon",
        "coordinates": [
          [
            [
              -120.16165466008705,
              38.718524607954855
            ],
            [
              -120.02248199013057,
              38.718524607954855
            ],
            [
              -120.02248199013057,
              38.82704921590971
            ],
            [
              -120.16165466008705,
              38.82704921590971
            ],
            [
              -120.16165466008705,
              38.718524607954855
            ]
          ]
        ]
      }
    },
    {
      "type": "Feature",
      "properties": {
        "layer": "seed-tile",
        "title": "tile 38.7185_-120.0225_38.8270_-119.8833",
        "stroke": "#2e7d32",
        "stroke-width": 1,
        "stroke-opacity": 0.6,
        "fill": "#2e7d32",
        "fill-opacity": 0.06
      },
      "geometry": {
        "type": "Polygon",
        "coordinates": [
          [
            [
              -120.02248199013057,
              38.718524607954855
            ],
            [
              -119.88330932017409,
              38.718524607954855
            ],
            [
              -119.88330932017409,
              38.82704921590971
            ],
            [
              -120.02248199013057,
              38.82704921590971
            ],
            [
              -120.02248199013057,
              38.718524607954855
            ]
          ]
        ]
      }
    },
    {
      "type": "Feature",
      "properties": {
        "layer": "seed-tile",
        "title": "tile 38.8270_-120.1617_38.9356_-120.0225",
        "stroke": "#2e7d32",
        "stroke-width": 1,
        "stroke-opacity": 0.6,
        "fill": "#2e7d32",
        "fill-opacity": 0.06
      },
      "geometry": {
        "type": "Polygon",
        "coordinates": [
          [
            [
              -120.16165466008705,
              38.82704921590971
            ],
            [
              -120.02248199013057,
              38.82704921590971
            ],
            [
              -120.02248199013057,
              38.935573823864566
            ],
            [
              -120.16165466008705,
              38.935573823864566
            ],
            [
              -120.16165466008705,
              38.82704921590971
            ]
          ]
        ]
      }
    },
    {
      "type": "Feature",
      "properties": {
        "layer": "seed-tile",
        "title": "tile 38.8270_-120.0225_38.9356_-119.8833",
        "stroke": "#2e7d32",
        "stroke-width": 1,
        "stroke-opacity": 0.6,
        "fill": "#2e7d32",
        "fill-opacity": 0.06
      },
      "geometry": {
        "type": "Polygon",
        "coordinates": [
          [
            [
              -120.02248199013057,
              38.82704921590971
            ],
            [
              -119.88330932017409,
              38.82704921590971
            ],
            [
              -119.88330932017409,
              38.935573823864566
            ],
            [
              -120.02248199013057,
              38.935573823864566
            ],
            [
              -120.02248199013057,
              38.82704921590971
            ]
          ]
        ]
      }
    },
    {
      "type": "Feature",
      "properties": {
        "layer": "seed-tile",
        "title": "tile 38.8270_-119.8833_38.9356_-119.7441",
        "stroke": "#2e7d32",
        "stroke-width": 1,
        "stroke-opacity": 0.6,
        "fill": "#2e7d32",
        "fill-opacity": 0.06
      },
      "geometry": {
        "type": "Polygon",
        "coordinates": [
          [
            [
              -119.8833093201741,
              38.82704921590971
            ],
            [
              -119.74413665021763,
              38.82704921590971
            ],
            [
              -119.74413665021763,
              38.935573823864566
            ],
            [
              -119.8833093201741,
              38.935573823864566
            ],
            [
              -119.8833093201741,
              38.82704921590971
            ]
          ]
        ]
      }
    },
    {
      "type": "Feature",
      "properties": {
        "layer": "seed-tile",
        "title": "tile 38.8270_-119.7441_38.9356_-119.6050",
        "stroke": "#2e7d32",
        "stroke-width": 1,
        "stroke-opacity": 0.6,
        "fill": "#2e7d32",
        "fill-opacity": 0.06
      },
      "geometry": {
        "type": "Polygon",
        "coordinates": [
          [
            [
              -119.74413665021763,
              38.82704921590971
            ],
            [
              -119.60496398026115,
              38.82704921590971
            ],
            [
              -119.60496398026115,
              38.935573823864566
            ],
            [
              -119.74413665021763,
              38.935573823864566
            ],
            [
              -119.74413665021763,
              38.82704921590971
            ]
          ]
        ]
      }
    },
    {
      "type": "Feature",
      "properties": {
        "layer": "seed-tile",
        "title": "tile 38.9356_-120.1617_39.0441_-120.0225",
        "stroke": "#2e7d32",
        "stroke-width": 1,
        "stroke-opacity": 0.6,
        "fill": "#2e7d32",
        "fill-opacity": 0.06
      },
      "geometry": {
        "type": "Polygon",
        "coordinates": [
          [
            [
              -120.16165466008705,
              38.93557382386456
            ],
            [
              -120.02248199013057,
              38.93557382386456
            ],
            [
              -120.02248199013057,
              39.044098431819414
            ],
            [
              -120.16165466008705,
              39.044098431819414
            ],
            [
              -120.16165466008705,
              38.93557382386456
            ]
          ]
        ]
      }
    },
    {
      "type": "Feature",
      "properties": {
        "layer": "seed-tile",
        "title": "tile 38.9356_-120.0225_39.0441_-119.8833",
        "stroke": "#2e7d32",
        "stroke-width": 1,
        "stroke-opacity": 0.6,
        "fill": "#2e7d32",
        "fill-opacity": 0.06
      },
      "geometry": {
        "type": "Polygon",
        "coordinates": [
          [
            [
              -120.02248199013057,
              38.93557382386456
            ],
            [
              -119.88330932017409,
              38.93557382386456
            ],
            [
              -119.88330932017409,
              39.044098431819414
            ],
            [
              -120.02248199013057,
              39.044098431819414
            ],
            [
              -120.02248199013057,
              38.93557382386456
            ]
          ]
        ]
      }
    },
    {
      "type": "Feature",
      "properties": {
        "layer": "seed-tile",
        "title": "tile 38.9356_-119.8833_39.0441_-119.7441",
        "stroke": "#2e7d32",
        "stroke-width": 1,
        "stroke-opacity": 0.6,
        "fill": "#2e7d32",
        "fill-opacity": 0.06
      },
      "geometry": {
        "type": "Polygon",
        "coordinates": [
          [
            [
              -119.8833093201741,
              38.93557382386456
            ],
            [
              -119.74413665021763,
              38.93557382386456
            ],
            [
              -119.74413665021763,
              39.044098431819414
            ],
            [
              -119.8833093201741,
              39.044098431819414
            ],
            [
              -119.8833093201741,
              38.93557382386456
            ]
          ]
        ]
      }
    },
    {
      "type": "Feature",
      "properties": {
        "layer": "seed-tile",
        "title": "tile 38.9356_-119.7441_39.0441_-119.6050",
        "stroke": "#2e7d32",
        "stroke-width": 1,
        "stroke-opacity": 0.6,
        "fill": "#2e7d32",
        "fill-opacity": 0.06
      },
      "geometry": {
        "type": "Polygon",
        "coordinates": [
          [
            [
              -119.74413665021763,
              38.93557382386456
            ],
            [
              -119.60496398026115,
              38.93557382386456
            ],
            [
              -119.60496398026115,
              39.044098431819414
            ],
            [
              -119.74413665021763,
              39.044098431819414
            ],
            [
              -119.74413665021763,
              38.93557382386456
            ]
          ]
        ]
      }
    },
    {
      "type": "Feature",
      "properties": {
        "layer": "seed-tile",
        "title": "tile 39.0441_-120.3008_39.1526_-120.1617",
        "stroke": "#2e7d32",
        "stroke-width": 1,
        "stroke-opacity": 0.6,
        "fill": "#2e7d32",
        "fill-opacity": 0.06
      },
      "geometry": {
        "type": "Polygon",
        "coordinates": [
          [
            [
              -120.30082733004352,
              39.044098431819414
            ],
            [
              -120.16165466008704,
              39.044098431819414
            ],
            [
              -120.16165466008704,
              39.15262303977427
            ],
            [
              -120.30082733004352,
              39.15262303977427
            ],
            [
              -120.30082733004352,
              39.044098431819414
            ]
          ]
        ]
      }
    },
    {
      "type": "Feature",
      "properties": {
        "layer": "seed-tile",
        "title": "tile 39.0441_-120.1617_39.1526_-120.0225",
        "stroke": "#2e7d32",
        "stroke-width": 1,
        "stroke-opacity": 0.6,
        "fill": "#2e7d32",
        "fill-opacity": 0.06
      },
      "geometry": {
        "type": "Polygon",
        "coordinates": [
          [
            [
              -120.16165466008705,
              39.044098431819414
            ],
            [
              -120.02248199013057,
              39.044098431819414
            ],
            [
              -120.02248199013057,
              39.15262303977427
            ],
            [
              -120.16165466008705,
              39.15262303977427
            ],
            [
              -120.16165466008705,
              39.044098431819414
            ]
          ]
        ]
      }
    },
    {
      "type": "Feature",
      "properties": {
        "layer": "seed-tile",
        "title": "tile 39.0441_-120.0225_39.1526_-119.8833",
        "stroke": "#2e7d32",
        "stroke-width": 1,
        "stroke-opacity": 0.6,
        "fill": "#2e7d32",
        "fill-opacity": 0.06
      },
      "geometry": {
        "type": "Polygon",
        "coordinates": [
          [
            [
              -120.02248199013057,
              39.044098431819414
            ],
            [
              -119.88330932017409,
              39.044098431819414
            ],
            [
              -119.88330932017409,
              39.15262303977427
            ],
            [
              -120.02248199013057,
              39.15262303977427
            ],
            [
              -120.02248199013057,
              39.044098431819414
            ]
          ]
        ]
      }
    },
    {
      "type": "Feature",
      "properties": {
        "layer": "seed-tile",
        "title": "tile 39.0441_-119.8833_39.1526_-119.7441",
        "stroke": "#2e7d32",
        "stroke-width": 1,
        "stroke-opacity": 0.6,
        "fill": "#2e7d32",
        "fill-opacity": 0.06
      },
      "geometry": {
        "type": "Polygon",
        "coordinates": [
          [
            [
              -119.8833093201741,
              39.044098431819414
            ],
            [
              -119.74413665021763,
              39.044098431819414
            ],
            [
              -119.74413665021763,
              39.15262303977427
            ],
            [
              -119.8833093201741,
              39.15262303977427
            ],
            [
              -119.8833093201741,
              39.044098431819414
            ]
          ]
        ]
      }
    },
    {
      "type": "Feature",
      "properties": {
        "layer": "seed-tile",
        "title": "tile 39.0441_-119.7441_39.1526_-119.6050",
        "stroke": "#2e7d32",
        "stroke-width": 1,
        "stroke-opacity": 0.6,
        "fill": "#2e7d32",
        "fill-opacity": 0.06
      },
      "geometry": {
        "type": "Polygon",
        "coordinates": [
          [
            [
              -119.74413665021763,
              39.044098431819414
            ],
            [
              -119.60496398026115,
              39.044098431819414
            ],
            [
              -119.60496398026115,
              39.15262303977427
            ],
            [
              -119.74413665021763,
              39.15262303977427
            ],
            [
              -119.74413665021763,
              39.044098431819414
            ]
          ]
        ]
      }
    },
    {
      "type": "Feature",
      "properties": {
        "layer": "seed-tile",
        "title": "tile 39.1526_-120.3008_39.2611_-120.1617",
        "stroke": "#2e7d32",
        "stroke-width": 1,
        "stroke-opacity": 0.6,
        "fill": "#2e7d32",
        "fill-opacity": 0.06
      },
      "geometry": {
        "type": "Polygon",
        "coordinates": [
          [
            [
              -120.30082733004352,
              39.15262303977427
            ],
            [
              -120.16165466008704,
              39.15262303977427
            ],
            [
              -120.16165466008704,
              39.261147647729125
            ],
            [
              -120.30082733004352,
              39.261147647729125
            ],
            [
              -120.30082733004352,
              39.15262303977427
            ]
          ]
        ]
      }
    },
    {
      "type": "Feature",
      "properties": {
        "layer": "seed-tile",
        "title": "tile 39.1526_-120.1617_39.2611_-120.0225",
        "stroke": "#2e7d32",
        "stroke-width": 1,
        "stroke-opacity": 0.6,
        "fill": "#2e7d32",
        "fill-opacity": 0.06
      },
      "geometry": {
        "type": "Polygon",
        "coordinates": [
          [
            [
              -120.16165466008705,
              39.15262303977427
            ],
            [
              -120.02248199013057,
              39.15262303977427
            ],
            [
              -120.02248199013057,
              39.261147647729125
            ],
            [
              -120.16165466008705,
              39.261147647729125
            ],
            [
              -120.16165466008705,
              39.15262303977427
            ]
          ]
        ]
      }
    },
    {
      "type": "Feature",
      "properties": {
        "layer": "seed-tile",
        "title": "tile 39.1526_-120.0225_39.2611_-119.8833",
        "stroke": "#2e7d32",
        "stroke-width": 1,
        "stroke-opacity": 0.6,
        "fill": "#2e7d32",
        "fill-opacity": 0.06
      },
      "geometry": {
        "type": "Polygon",
        "coordinates": [
          [
            [
              -120.02248199013057,
              39.15262303977427
            ],
            [
              -119.88330932017409,
              39.15262303977427
            ],
            [
              -119.88330932017409,
              39.261147647729125
            ],
            [
              -120.02248199013057,
              39.261147647729125
            ],
            [
              -120.02248199013057,
              39.15262303977427
            ]
          ]
        ]
      }
    },
    {
      "type": "Feature",
      "properties": {
        "layer": "seed-tile",
        "title": "tile 39.1526_-119.8833_39.2611_-119.7441",
        "stroke": "#2e7d32",
        "stroke-width": 1,
        "stroke-opacity": 0.6,
        "fill": "#2e7d32",
        "fill-opacity": 0.06
      },
      "geometry": {
        "type": "Polygon",
        "coordinates": [
          [
            [
              -119.8833093201741,
              39.15262303977427
            ],
            [
              -119.74413665021763,
              39.15262303977427
            ],
            [
              -119.74413665021763,
              39.261147647729125
            ],
            [
              -119.8833093201741,
              39.261147647729125
            ],
            [
              -119.8833093201741,
              39.15262303977427
            ]
          ]
        ]
      }
    },
    {
      "type": "Feature",
      "properties": {
        "layer": "seed-tile",
        "title": "tile 39.1526_-119.7441_39.2611_-119.6050",
        "stroke": "#2e7d32",
        "stroke-width": 1,
        "stroke-opacity": 0.6,
        "fill": "#2e7d32",
        "fill-opacity": 0.06
      },
      "geometry": {
        "type": "Polygon",
        "coordinates": [
          [
            [
              -119.74413665021763,
              39.15262303977427
            ],
            [
              -119.60496398026115,
              39.15262303977427
            ],
            [
              -119.60496398026115,
              39.261147647729125
            ],
            [
              -119.74413665021763,
              39.261147647729125
            ],
            [
              -119.74413665021763,
              39.15262303977427
            ]
          ]
        ]
      }
    },
    {
      "type": "Feature",
      "properties": {
        "layer": "seed-tile",
        "title": "tile 39.2611_-120.4400_39.3697_-120.3008",
        "stroke": "#2e7d32",
        "stroke-width": 1,
        "stroke-opacity": 0.6,
        "fill": "#2e7d32",
        "fill-opacity": 0.06
      },
      "geometry": {
        "type": "Polygon",
        "coordinates": [
          [
            [
              -120.44,
              39.261147647729125
            ],
            [
              -120.30082733004352,
              39.261147647729125
            ],
            [
              -120.30082733004352,
              39.36967225568398
            ],
            [
              -120.44,
              39.36967225568398
            ],
            [
              -120.44,
              39.261147647729125
            ]
          ]
        ]
      }
    },
    {
      "type": "Feature",
      "properties": {
        "layer": "seed-tile",
        "title": "tile 39.2611_-120.3008_39.3697_-120.1617",
        "stroke": "#2e7d32",
        "stroke-width": 1,
        "stroke-opacity": 0.6,
        "fill": "#2e7d32",
        "fill-opacity": 0.06
      },
      "geometry": {
        "type": "Polygon",
        "coordinates": [
          [
            [
              -120.30082733004352,
              39.261147647729125
            ],
            [
              -120.16165466008704,
              39.261147647729125
            ],
            [
              -120.16165466008704,
              39.36967225568398
            ],
            [
              -120.30082733004352,
              39.36967225568398
            ],
            [
              -120.30082733004352,
              39.261147647729125
            ]
          ]
        ]
      }
    },
    {
      "type": "Feature",
      "properties": {
        "layer": "seed-tile",
        "title": "tile 39.2611_-120.1617_39.3697_-120.0225",
        "stroke": "#2e7d32",
        "stroke-width": 1,
        "stroke-opacity": 0.6,
        "fill": "#2e7d32",
        "fill-opacity": 0.06
      },
      "geometry": {
        "type": "Polygon",
        "coordinates": [
          [
            [
              -120.16165466008705,
              39.261147647729125
            ],
            [
              -120.02248199013057,
              39.261147647729125
            ],
            [
              -120.02248199013057,
              39.36967225568398
            ],
            [
              -120.16165466008705,
              39.36967225568398
            ],
            [
              -120.16165466008705,
              39.261147647729125
            ]
          ]
        ]
      }
    },
    {
      "type": "Feature",
      "properties": {
        "layer": "seed-tile",
        "title": "tile 39.2611_-120.0225_39.3697_-119.8833",
        "stroke": "#2e7d32",
        "stroke-width": 1,
        "stroke-opacity": 0.6,
        "fill": "#2e7d32",
        "fill-opacity": 0.06
      },
      "geometry": {
        "type": "Polygon",
        "coordinates": [
          [
            [
              -120.02248199013057,
              39.261147647729125
            ],
            [
              -119.88330932017409,
              39.261147647729125
            ],
            [
              -119.88330932017409,
              39.36967225568398
            ],
            [
              -120.02248199013057,
              39.36967225568398
            ],
            [
              -120.02248199013057,
              39.261147647729125
            ]
          ]
        ]
      }
    },
    {
      "type": "Feature",
      "properties": {
        "layer": "seed-tile",
        "title": "tile 39.2611_-119.8833_39.3697_-119.7441",
        "stroke": "#2e7d32",
        "stroke-width": 1,
        "stroke-opacity": 0.6,
        "fill": "#2e7d32",
        "fill-opacity": 0.06
      },
      "geometry": {
        "type": "Polygon",
        "coordinates": [
          [
            [
              -119.8833093201741,
              39.261147647729125
            ],
            [
              -119.74413665021763,
              39.261147647729125
            ],
            [
              -119.74413665021763,
              39.36967225568398
            ],
            [
              -119.8833093201741,
              39.36967225568398
            ],
            [
              -119.8833093201741,
              39.261147647729125
            ]
          ]
        ]
      }
    },
    {
      "type": "Feature",
      "properties": {
        "layer": "seed-tile",
        "title": "tile 39.2611_-119.7441_39.3697_-119.6050",
        "stroke": "#2e7d32",
        "stroke-width": 1,
        "stroke-opacity": 0.6,
        "fill": "#2e7d32",
        "fill-opacity": 0.06
      },
      "geometry": {
        "type": "Polygon",
        "coordinates": [
          [
            [
              -119.74413665021763,
              39.261147647729125
            ],
            [
              -119.60496398026115,
              39.261147647729125
            ],
            [
              -119.60496398026115,
              39.36967225568398
            ],
            [
              -119.74413665021763,
              39.36967225568398
            ],
            [
              -119.74413665021763,
              39.261147647729125
            ]
          ]
        ]
      }
    },
    {
      "type": "Feature",
      "properties": {
        "layer": "seed-tile",
        "title": "tile 39.3697_-120.0225_39.4782_-119.8833",
        "stroke": "#2e7d32",
        "stroke-width": 1,
        "stroke-opacity": 0.6,
        "fill": "#2e7d32",
        "fill-opacity": 0.06
      },
      "geometry": {
        "type": "Polygon",
        "coordinates": [
          [
            [
              -120.02248199013057,
              39.36967225568397
            ],
            [
              -119.88330932017409,
              39.36967225568397
            ],
            [
              -119.88330932017409,
              39.47819686363883
            ],
            [
              -120.02248199013057,
              39.47819686363883
            ],
            [
              -120.02248199013057,
              39.36967225568397
            ]
          ]
        ]
      }
    },
    {
      "type": "Feature",
      "properties": {
        "layer": "seed-tile",
        "title": "tile 39.3697_-119.8833_39.4782_-119.7441",
        "stroke": "#2e7d32",
        "stroke-width": 1,
        "stroke-opacity": 0.6,
        "fill": "#2e7d32",
        "fill-opacity": 0.06
      },
      "geometry": {
        "type": "Polygon",
        "coordinates": [
          [
            [
              -119.8833093201741,
              39.36967225568397
            ],
            [
              -119.74413665021763,
              39.36967225568397
            ],
            [
              -119.74413665021763,
              39.47819686363883
            ],
            [
              -119.8833093201741,
              39.47819686363883
            ],
            [
              -119.8833093201741,
              39.36967225568397
            ]
          ]
        ]
      }
    },
    {
      "type": "Feature",
      "properties": {
        "layer": "seed-tile",
        "title": "tile 39.3697_-119.7441_39.4782_-119.6050",
        "stroke": "#2e7d32",
        "stroke-width": 1,
        "stroke-opacity": 0.6,
        "fill": "#2e7d32",
        "fill-opacity": 0.06
      },
      "geometry": {
        "type": "Polygon",
        "coordinates": [
          [
            [
              -119.74413665021763,
              39.36967225568397
            ],
            [
              -119.60496398026115,
              39.36967225568397
            ],
            [
              -119.60496398026115,
              39.47819686363883
            ],
            [
              -119.74413665021763,
              39.47819686363883
            ],
            [
              -119.74413665021763,
              39.36967225568397
            ]
          ]
        ]
      }
    },
    {
      "type": "Feature",
      "properties": {
        "layer": "seed-tile",
        "title": "tile 39.4782_-120.0225_39.5867_-119.8833",
        "stroke": "#2e7d32",
        "stroke-width": 1,
        "stroke-opacity": 0.6,
        "fill": "#2e7d32",
        "fill-opacity": 0.06
      },
      "geometry": {
        "type": "Polygon",
        "coordinates": [
          [
            [
              -120.02248199013057,
              39.47819686363883
            ],
            [
              -119.88330932017409,
              39.47819686363883
            ],
            [
              -119.88330932017409,
              39.586721471593684
            ],
            [
              -120.02248199013057,
              39.586721471593684
            ],
            [
              -120.02248199013057,
              39.47819686363883
            ]
          ]
        ]
      }
    },
    {
      "type": "Feature",
      "properties": {
        "layer": "seed-tile",
        "title": "tile 39.4782_-119.8833_39.5867_-119.7441",
        "stroke": "#2e7d32",
        "stroke-width": 1,
        "stroke-opacity": 0.6,
        "fill": "#2e7d32",
        "fill-opacity": 0.06
      },
      "geometry": {
        "type": "Polygon",
        "coordinates": [
          [
            [
              -119.8833093201741,
              39.47819686363883
            ],
            [
              -119.74413665021763,
              39.47819686363883
            ],
            [
              -119.74413665021763,
              39.586721471593684
            ],
            [
              -119.8833093201741,
              39.586721471593684
            ],
            [
              -119.8833093201741,
              39.47819686363883
            ]
          ]
        ]
      }
    },
    {
      "type": "Feature",
      "properties": {
        "layer": "seed-tile",
        "title": "tile 39.4782_-119.7441_39.5867_-119.6050",
        "stroke": "#2e7d32",
        "stroke-width": 1,
        "stroke-opacity": 0.6,
        "fill": "#2e7d32",
        "fill-opacity": 0.06
      },
      "geometry": {
        "type": "Polygon",
        "coordinates": [
          [
            [
              -119.74413665021763,
              39.47819686363883
            ],
            [
              -119.60496398026115,
              39.47819686363883
            ],
            [
              -119.60496398026115,
              39.586721471593684
            ],
            [
              -119.74413665021763,
              39.586721471593684
            ],
            [
              -119.74413665021763,
              39.47819686363883
            ]
          ]
        ]
      }
    },
    {
      "type": "Feature",
      "properties": {
        "layer": "seed-tile",
        "title": "tile 39.5867_-120.0225_39.6952_-119.8833",
        "stroke": "#2e7d32",
        "stroke-width": 1,
        "stroke-opacity": 0.6,
        "fill": "#2e7d32",
        "fill-opacity": 0.06
      },
      "geometry": {
        "type": "Polygon",
        "coordinates": [
          [
            [
              -120.02248199013057,
              39.586721471593684
            ],
            [
              -119.88330932017409,
              39.586721471593684
            ],
            [
              -119.88330932017409,
              39.69524607954854
            ],
            [
              -120.02248199013057,
              39.69524607954854
            ],
            [
              -120.02248199013057,
              39.586721471593684
            ]
          ]
        ]
      }
    },
    {
      "type": "Feature",
      "properties": {
        "layer": "seed-tile",
        "title": "tile 39.5867_-119.8833_39.6952_-119.7441",
        "stroke": "#2e7d32",
        "stroke-width": 1,
        "stroke-opacity": 0.6,
        "fill": "#2e7d32",
        "fill-opacity": 0.06
      },
      "geometry": {
        "type": "Polygon",
        "coordinates": [
          [
            [
              -119.8833093201741,
              39.586721471593684
            ],
            [
              -119.74413665021763,
              39.586721471593684
            ],
            [
              -119.74413665021763,
              39.69524607954854
            ],
            [
              -119.8833093201741,
              39.69524607954854
            ],
            [
              -119.8833093201741,
              39.586721471593684
            ]
          ]
        ]
      }
    },
    {
      "type": "Feature",
      "properties": {
        "layer": "seed-tile",
        "title": "tile 39.5867_-119.7441_39.6952_-119.6050",
        "stroke": "#2e7d32",
        "stroke-width": 1,
        "stroke-opacity": 0.6,
        "fill": "#2e7d32",
        "fill-opacity": 0.06
      },
      "geometry": {
        "type": "Polygon",
        "coordinates": [
          [
            [
              -119.74413665021763,
              39.586721471593684
            ],
            [
              -119.60496398026115,
              39.586721471593684
            ],
            [
              -119.60496398026115,
              39.69524607954854
            ],
            [
              -119.74413665021763,
              39.69524607954854
            ],
            [
              -119.74413665021763,
              39.586721471593684
            ]
          ]
        ]
      }
    }
  ]
}